OBJECT_NAME,OBJECT_ID,EPOCH,MEAN_MOTION,ECCENTRICITY,INCLINATION,RA_OF_ASC_NODE,ARG_OF_PERICENTER,MEAN_ANOMALY,EPHEMERIS_TYPE,CLASSIFICATION_TYPE,NORAD_CAT_ID,ELEMENT_SET_NO,REV_AT_EPOCH,BSTAR,MEAN_MOTION_DOT,MEAN_MOTION_DDOT
STARLINK-32009,2024-117P,2024-07-07T22:00:00.999936,15.87975403,.000095,53.1477,355.4558,51.0060,307.6629,0,U,60104,999,346,-.28258E-2,-.723639E-2,0
STARLINK-32018,2024-117Q,2024-07-07T22:00:00.999936,15.84353461,.0001284,53.1491,355.7244,73.0352,156.3520,0,U,60105,999,346,-.31974E-2,-.688273E-2,0
STARLINK-32045,2024-117R,2024-07-07T22:00:00.999936,15.84354362,.0001166,53.1492,355.7312,67.7814,158.5871,0,U,60106,999,324,-.31739E-2,-.683583E-2,0
STARLINK-32035,2024-117S,2024-07-07T22:00:00.999936,15.84347534,.0001293,53.1493,355.7177,75.8289,156.9265,0,U,60107,999,339,-.32302E-2,-.694629E-2,0
STARLINK-32042,2024-117T,2024-07-07T22:00:00.999936,15.84354012,.0001353,53.1491,355.7062,71.8035,166.3509,0,U,60108,999,335,-.32773E-2,-.704217E-2,0
STARLINK-32040,2024-117U,2024-07-07T22:00:00.999936,15.84354069,.000128,53.1495,355.7131,73.0679,162.1684,0,U,60109,999,339,-.32503E-2,-.69883E-2,0
STARLINK-32001,2024-117V,2024-07-06T16:00:01.999584,15.86398610,.0000708,53.1494,2.0059,60.2390,242.9375,0,U,60110,999,321,-.33356E-2,-.784331E-2,0
STARLINK-32015,2024-117W,2024-07-07T22:00:00.999936,15.84347827,.0001101,53.1490,355.6934,74.7525,169.5248,0,U,60111,999,329,-.33316E-2,-.714738E-2,0
STARLINK-32024,2024-117X,2024-07-07T13:23:42.136512,15.85096970,.0001851,53.1486,357.4925,138.4421,221.6744,0,U,60112,999,335,-.16257E-2,-.376099E-2,0
STARLINK-11201 [DTC],2024-118A,2024-07-07T20:00:01.000224,15.76866493,.0000703,53.1688,350.6255,14.3636,138.9917,0,U,60113,999,305,.12264E-2,.206259E-2,0
STARLINK-11198 [DTC],2024-118B,2024-07-07T22:00:00.999936,15.77497991,.0001591,53.1693,350.1837,350.0875,289.6111,0,U,60114,999,306,-.30266E-2,-.485204E-2,0
STARLINK-11112 [DTC],2024-118C,2024-07-07T22:00:00.999936,15.76834411,.0000977,53.1686,350.1484,18.7968,277.9973,0,U,60115,999,328,-.5858E-3,-.95898E-3,0
STARLINK-11210 [DTC],2024-118D,2024-07-07T22:00:00.999936,15.76831892,.000077,53.1689,350.0914,341.0191,343.2947,0,U,60116,999,306,.40686E-3,.66763E-3,0
STARLINK-11203 [DTC],2024-118E,2024-07-08T02:00:01.000224,15.76780896,.0002088,53.1683,349.2034,96.0054,122.7675,0,U,60117,999,325,.23157E-3,.37501E-3,0
STARLINK-11177 [DTC],2024-118F,2024-07-07T22:00:00.999936,15.77644998,.0000945,53.1681,349.9780,55.9779,323.4879,0,U,60118,999,323,-.72267E-2,-.1104721E-1,0
STARLINK-11127 [DTC],2024-118G,2024-07-08T02:00:01.000224,15.79964107,.0000947,53.1677,349.1000,38.6651,230.0301,0,U,60119,999,309,-.92005E-2,-.1531419E-1,0
STARLINK-11164 [DTC],2024-118H,2024-07-07T21:46:53.322240,15.83550933,.0003031,53.1680,349.9550,226.7511,133.3261,0,U,60120,999,328,-.10508E-2,-.229825E-2,0
STARLINK-11119 [DTC],2024-118J,2024-07-07T22:00:00.999936,15.83736371,.0000999,53.1673,349.8822,104.9489,320.8272,0,U,60121,999,323,.27726E-3,.62282E-3,0
STARLINK-11157 [DTC],2024-118K,2024-07-07T22:00:00.999936,15.83731001,.0001105,53.1675,349.8967,109.3038,309.2077,0,U,60122,999,296,.97122E-3,.224096E-2,0
STARLINK-11162 [DTC],2024-118L,2024-07-07T10:00:00.999936,15.83921067,.0000747,53.1678,352.3819,104.7935,355.0499,0,U,60123,999,284,-.40104E-3,-.91086E-3,0
STARLINK-11161 [DTC],2024-118M,2024-07-07T22:00:00.999936,15.83754562,.0000937,53.1673,349.8527,79.7902,0.0128,0,U,60124,999,322,-.8875E-3,-.196738E-2,0
STARLINK-11160 [DTC],2024-118N,2024-07-08T00:39:54.601920,15.83837437,.0001964,53.1675,349.2782,353.0370,7.0626,0,U,60125,999,330,.21395E-3,.48049E-3,0
STARLINK-31846,2024-118P,2024-07-07T20:00:01.000224,15.76182165,.0000915,53.1674,350.4388,63.1688,179.5924,0,U,60126,999,327,-.58981E-2,-.853299E-2,0
STARLINK-31840,2024-118Q,2024-07-07T20:00:01.000224,15.76089034,.0001037,53.1673,350.4332,53.8712,191.4510,0,U,60127,999,320,-.60291E-2,-.867227E-2,0
STARLINK-31813,2024-118R,2024-07-07T20:00:01.000224,15.75944549,.0001026,53.1674,350.4276,76.8713,171.2744,0,U,60128,999,320,-.62036E-2,-.884737E-2,0
STARLINK-31845,2024-118S,2024-07-08T02:00:01.000224,15.75349058,.0001213,53.1671,349.1785,79.1864,150.4613,0,U,60129,999,324,-.702E-2,-.965579E-2,0
STARLINK-31838,2024-118T,2024-07-08T02:00:01.000224,15.75121721,.0001263,53.1669,349.1687,72.1299,162.2610,0,U,60130,999,324,-.73202E-2,-.1010029E-1,0
STARLINK-31785,2024-118U,2024-07-07T20:00:01.000224,15.75714833,.0001156,53.1674,350.4171,72.4499,180.8282,0,U,60131,999,320,-.65078E-2,-.915345E-2,0
STARLINK-31792,2024-118V,2024-07-07T20:00:01.000224,15.90024902,.0002139,53.1674,350.1271,303.4610,91.0895,0,U,60132,999,321,.12825E-2,.411987E-2,0
STARLINK-32043,2024-120A,2024-07-07T10:00:00.999936,15.92431273,.0001344,53.1507,290.6007,88.6222,8.1994,0,U,60135,999,258,-.29541E-2,-.1027278E-1,.32266E-3
