STARLINK-32009          
1 60104U 24117P   24189.91667824 -.00723639  00000+0 -28258-2 0  9991
2 60104  53.1477 355.4558 0000950  51.0060 307.6629 15.87975403  3466
STARLINK-32018          
1 60105U 24117Q   24189.91667824 -.00688273  00000+0 -31974-2 0  9995
2 60105  53.1491 355.7244 0001284  73.0352 156.3520 15.84353461  3467
STARLINK-32045          
1 60106U 24117R   24189.91667824 -.00683583  00000+0 -31739-2 0  9994
2 60106  53.1492 355.7312 0001166  67.7814 158.5871 15.84354362  3247
STARLINK-32035          
1 60107U 24117S   24189.91667824 -.00694629  00000+0 -32302-2 0  9995
2 60107  53.1493 355.7177 0001293  75.8289 156.9265 15.84347534  3393
STARLINK-32042          
1 60108U 24117T   24189.91667824 -.00704217  00000+0 -32773-2 0  9993
2 60108  53.1491 355.7062 0001353  71.8035 166.3509 15.84354012  3358
STARLINK-32040          
1 60109U 24117U   24189.91667824 -.00698830  00000+0 -32503-2 0  9998
2 60109  53.1495 355.7131 0001280  73.0679 162.1684 15.84354069  3391
STARLINK-32001          
1 60110U 24117V   24188.66668981 -.00784331  00000+0 -33356-2 0  9995
2 60110  53.1494   2.0059 0000708  60.2390 242.9375 15.86398610  3212
STARLINK-32015          
1 60111U 24117W   24189.91667824 -.00714738  00000+0 -33316-2 0  9990
2 60111  53.1490 355.6934 0001101  74.7525 169.5248 15.84347827  3299
STARLINK-32024          
1 60112U 24117X   24189.55812658 -.00376099  00000+0 -16257-2 0  9997
2 60112  53.1486 357.4925 0001851 138.4421 221.6744 15.85096970  3359
STARLINK-11201 [DTC]    
1 60113U 24118A   24189.83334491  .00206259  00000+0  12264-2 0  9996
2 60113  53.1688 350.6255 0000703  14.3636 138.9917 15.76866493  3054
STARLINK-11198 [DTC]    
1 60114U 24118B   24189.91667824 -.00485204  00000+0 -30266-2 0  9998
2 60114  53.1693 350.1837 0001591 350.0875 289.6111 15.77497991  3068
STARLINK-11112 [DTC]    
1 60115U 24118C   24189.91667824 -.00095898  00000+0 -58580-3 0  9995
2 60115  53.1686 350.1484 0000977  18.7968 277.9973 15.76834411  3288
STARLINK-11210 [DTC]    
1 60116U 24118D   24189.91667824  .00066763  00000+0  40686-3 0  9991
2 60116  53.1689 350.0914 0000770 341.0191 343.2947 15.76831892  3064
STARLINK-11203 [DTC]    
1 60117U 24118E   24190.08334491  .00037501  00000+0  23157-3 0  9995
2 60117  53.1683 349.2034 0002088  96.0054 122.7675 15.76780896  3257
STARLINK-11177 [DTC]    
1 60118U 24118F   24189.91667824 -.01104721  00000+0 -72267-2 0  9992
2 60118  53.1681 349.9780 0000945  55.9779 323.4879 15.77644998  3236
STARLINK-11127 [DTC]    
1 60119U 24118G   24190.08334491 -.01531419  00000+0 -92005-2 0  9994
2 60119  53.1677 349.1000 0000947  38.6651 230.0301 15.79964107  3094
STARLINK-11164 [DTC]    
1 60120U 24118H   24189.90756160 -.00229825  00000+0 -10508-2 0  9998
2 60120  53.1680 349.9550 0003031 226.7511 133.3261 15.83550933  3284
STARLINK-11119 [DTC]    
1 60121U 24118J   24189.91667824  .00062282  00000+0  27726-3 0  9999
2 60121  53.1673 349.8822 0000999 104.9489 320.8272 15.83736371  3231
STARLINK-11157 [DTC]    
1 60122U 24118K   24189.91667824  .00224096  00000+0  97122-3 0  9990
2 60122  53.1675 349.8967 0001105 109.3038 309.2077 15.83731001  2961
STARLINK-11162 [DTC]    
1 60123U 24118L   24189.41667824 -.00091086  00000+0 -40104-3 0  9997
2 60123  53.1678 352.3819 0000747 104.7935 355.0499 15.83921067  2843
STARLINK-11161 [DTC]    
1 60124U 24118M   24189.91667824 -.00196738  00000+0 -88750-3 0  9992
2 60124  53.1673 349.8527 0000937  79.7902   0.0128 15.83754562  3225
STARLINK-11160 [DTC]    
1 60125U 24118N   24190.02771530  .00048049  00000+0  21395-3 0  9998
2 60125  53.1675 349.2782 0001964 353.0370   7.0626 15.83837437  3305
STARLINK-31846          
1 60126U 24118P   24189.83334491 -.00853299  00000+0 -58981-2 0  9990
2 60126  53.1674 350.4388 0000915  63.1688 179.5924 15.76182165  3272
STARLINK-31840          
1 60127U 24118Q   24189.83334491 -.00867227  00000+0 -60291-2 0  9994
2 60127  53.1673 350.4332 0001037  53.8712 191.4510 15.76089034  3209
STARLINK-31813          
1 60128U 24118R   24189.83334491 -.00884737  00000+0 -62036-2 0  9999
2 60128  53.1674 350.4276 0001026  76.8713 171.2744 15.75944549  3207
STARLINK-31845          
1 60129U 24118S   24190.08334491 -.00965579  00000+0 -70200-2 0  9995
2 60129  53.1671 349.1785 0001213  79.1864 150.4613 15.75349058  3248
STARLINK-31838          
1 60130U 24118T   24190.08334491 -.01010029  00000+0 -73202-2 0  9994
2 60130  53.1669 349.1687 0001263  72.1299 162.2610 15.75121721  3241
STARLINK-31785          
1 60131U 24118U   24189.83334491 -.00915345  00000+0 -65078-2 0  9992
2 60131  53.1674 350.4171 0001156  72.4499 180.8282 15.75714833  3206
STARLINK-31792          
1 60132U 24118V   24189.83334491  .00411987  00000+0  12825-2 0  9996
2 60132  53.1674 350.1271 0002139 303.4610  91.0895 15.90024902  3211
STARLINK-32043          
1 60135U 24120A   24189.41667824 -.01027278  32266-3 -29541-2 0  9990
2 60135  53.1507 290.6007 0001344  88.6222   8.1994 15.92431273  2585
